{"type": "FeatureCollection", "features": [ {"type": "Feature", "properties": {"norad_id": 34682, "name": "COSMOS 2251 DEB", "group": "cosmos-2251-debris", "lat": 60.663334640844845, "lon": 122.32117254009529, "alt_km": 703.0145457504977, "timestamp": "2025-12-08T03:50:07.391015+00:00", "meta": {"OBJECT_NAME": "COSMOS 2251 DEB", "OBJECT_ID": "1993-036YC", "EPOCH": "2025-12-07T02:02:15.105120", "MEAN_MOTION": 14.58829352, "ECCENTRICITY": 0.00186211, "INCLINATION": 74.0401, "RA_OF_ASC_NODE": 93.7567, "ARG_OF_PERICENTER": 227.0486, "MEAN_ANOMALY": 315.2215, "EPHEMERIS_TYPE": 0, "CLASSIFICATION_TYPE": "U", "NORAD_CAT_ID": 34682, "ELEMENT_SET_NO": 999, "REV_AT_EPOCH": 88603, "BSTAR": 0.0014123481, "MEAN_MOTION_DOT": 6.6e-05, "MEAN_MOTION_DDOT": 0}, "tle": {"line1": "1 34682U 93036YC  25341.08489705  .00006600  00000+0  14123-2 0  9994", "line2": "2 34682  74.0401  93.7567 0018621 227.0486 315.2215 14.58829352886036"}}, "geometry": {"type": "Point", "coordinates": [122.32117254009529, 60.663334640844845]}}, {"type": "Feature", "properties": {"norad_id": 34683, "name": "COSMOS 2251 DEB", "group": "cosmos-2251-debris", "lat": 51.17292765346413, "lon": -99.77087552385404, "alt_km": 673.9135759670535, "timestamp": "2025-12-08T03:50:07.391025+00:00", "meta": {"OBJECT_NAME": "COSMOS 2251 DEB", "OBJECT_ID": "1993-036YD", "EPOCH": "2025-12-06T19:01:34.135680", "MEAN_MOTION": 14.64356013, "ECCENTRICITY": 0.00186175, "INCLINATION": 74.0295, "RA_OF_ASC_NODE": 103.7007, "ARG_OF_PERICENTER": 218.7009, "MEAN_ANOMALY": 263.542, "EPHEMERIS_TYPE": 0, "CLASSIFICATION_TYPE": "U", "NORAD_CAT_ID": 34683, "ELEMENT_SET_NO": 999, "REV_AT_EPOCH": 88261, "BSTAR": 0.0025066813, "MEAN_MOTION_DOT": 0.00013271, "MEAN_MOTION_DDOT": 0}, "tle": {"line1": "1 34683U 93036YD  25340.79275620  .00013271  00000+0  25067-2 0  9992", "line2": "2 34683  74.0295 103.7007 0018617 218.7009 263.5420 14.64356013882611"}}, "geometry": {"type": "Point", "coordinates": [-99.77087552385404, 51.17292765346413]}}, {"type": "Feature", "properties": {"norad_id": 34685, "name": "COSMOS 2251 DEB", "group": "cosmos-2251-debris", "lat": 30.064930619114207, "lon": 167.0331844410144, "alt_km": 706.1137501225212, "timestamp": "2025-12-08T03:50:07.391047+00:00", "meta": {"OBJECT_NAME": "COSMOS 2251 DEB", "OBJECT_ID": "1993-036YF", "EPOCH": "2025-12-06T22:43:43.640832", "MEAN_MOTION": 14.57426463, "ECCENTRICITY": 0.00143689, "INCLINATION": 74.0285, "RA_OF_ASC_NODE": 159.7952, "ARG_OF_PERICENTER": 263.8439, "MEAN_ANOMALY": 246.9929, "EPHEMERIS_TYPE": 0, "CLASSIFICATION_TYPE": "U", "NORAD_CAT_ID": 34685, "ELEMENT_SET_NO": 999, "REV_AT_EPOCH": 88447, "BSTAR": 0.0016184908, "MEAN_MOTION_DOT": 7.333e-05, "MEAN_MOTION_DDOT": 0}, "tle": {"line1": "1 34685U 93036YF  25340.94703288  .00007333  00000+0  16185-2 0  9990", "line2": "2 34685  74.0285 159.7952 0014368 263.8439 246.9929 14.57426463884473"}}, "geometry": {"type": "Point", "coordinates": [167.0331844410144, 30.064930619114207]}}, {"type": "Feature", "properties": {"norad_id": 34689, "name": "COSMOS 2251 DEB", "group": "cosmos-2251-debris", "lat": 28.641663074896897, "lon": -119.6741183693971, "alt_km": 870.3765066095566, "timestamp": "2025-12-08T03:50:07.391058+00:00", "meta": {"OBJECT_NAME": "COSMOS 2251 DEB", "OBJECT_ID": "1993-036YK", "EPOCH": "2025-12-01T04:52:05.077056", "MEAN_MOTION": 14.04150485, "ECCENTRICITY": 0.0229843, "INCLINATION": 74.0888, "RA_OF_ASC_NODE": 243.4543, "ARG_OF_PERICENTER": 314.8144, "MEAN_ANOMALY": 197.2792, "EPHEMERIS_TYPE": 0, "CLASSIFICATION_TYPE": "U", "NORAD_CAT_ID": 34689, "ELEMENT_SET_NO": 999, "REV_AT_EPOCH": 84179, "BSTAR": 0.0056499, "MEAN_MOTION_DOT": 0.00011323, "MEAN_MOTION_DDOT": 0}, "tle": {"line1": "1 34689U 93036YK  25335.20283654  .00011323  00000+0  56499-2 0  9993", "line2": "2 34689  74.0888 243.4543 0229843 314.8144 197.2792 14.04150485841793"}}, "geometry": {"type": "Point", "coordinates": [-119.6741183693971, 28.641663074896897]}}, {"type": "Feature", "properties": {"norad_id": 34721, "name": "COSMOS 2251 DEB", "group": "cosmos-2251-debris", "lat": -0.10444052017256503, "lon": 154.2264884567214, "alt_km": 914.9684685980974, "timestamp": "2025-12-08T03:50:07.391068+00:00", "meta": {"OBJECT_NAME": "COSMOS 2251 DEB", "OBJECT_ID": "1993-036YP", "EPOCH": "2025-12-06T23:35:40.645248", "MEAN_MOTION": 13.96808265, "ECCENTRICITY": 0.02238801, "INCLINATION": 73.9235, "RA_OF_ASC_NODE": 336.2367, "ARG_OF_PERICENTER": 276.2102, "MEAN_ANOMALY": 111.5621, "EPHEMERIS_TYPE": 0, "CLASSIFICATION_TYPE": "U", "NORAD_CAT_ID": 34721, "ELEMENT_SET_NO": 999, "REV_AT_EPOCH": 85069, "BSTAR": 0.0025666794, "MEAN_MOTION_DOT": 4.384e-05, "MEAN_MOTION_DDOT": 0}, "tle": {"line1": "1 34721U 93036YP  25340.98310932  .00004384  00000+0  25667-2 0  9993", "line2": "2 34721  73.9235 336.2367 0223880 276.2102 111.5621 13.96808265850694"}}, "geometry": {"type": "Point", "coordinates": [154.2264884567214, -0.10444052017256503]}}, {"type": "Feature", "properties": {"norad_id": 34722, "name": "COSMOS 2251 DEB", "group": "cosmos-2251-debris", "lat": 21.12833174676556, "lon": 157.8180098396988, "alt_km": 897.2804082277398, "timestamp": "2025-12-08T03:50:07.391078+00:00", "meta": {"OBJECT_NAME": "COSMOS 2251 DEB", "OBJECT_ID": "1993-036YQ", "EPOCH": "2025-12-07T00:00:17.612640", "MEAN_MOTION": 14.11905437, "ECCENTRICITY": 0.01673586, "INCLINATION": 73.8723, "RA_OF_ASC_NODE": 346.305, "ARG_OF_PERICENTER": 272.845, "MEAN_ANOMALY": 114.9644, "EPHEMERIS_TYPE": 0, "CLASSIFICATION_TYPE": "U", "NORAD_CAT_ID": 34722, "ELEMENT_SET_NO": 999, "REV_AT_EPOCH": 86164, "BSTAR": 0.0014060334, "MEAN_MOTION_DOT": 2.906e-05, "MEAN_MOTION_DDOT": 0}, "tle": {"line1": "1 34722U 93036YQ  25341.00020385  .00002906  00000+0  14060-2 0  9991", "line2": "2 34722  73.8723 346.3050 0167358 272.8450 114.9644 14.11905437861648"}}, "geometry": {"type": "Point", "coordinates": [157.8180098396988, 21.12833174676556]}}, {"type": "Feature", "properties": {"norad_id": 34726, "name": "COSMOS 2251 DEB", "group": "cosmos-2251-debris", "lat": 52.29741713611253, "lon": 153.3148522310473, "alt_km": 662.1060059713882, "timestamp": "2025-12-08T03:50:07.391088+00:00", "meta": {"OBJECT_NAME": "COSMOS 2251 DEB", "OBJECT_ID": "1993-036YU", "EPOCH": "2025-12-07T00:56:41.873856", "MEAN_MOTION": 14.59449437, "ECCENTRICITY": 0.00422966, "INCLINATION": 74.029, "RA_OF_ASC_NODE": 357.1979, "ARG_OF_PERICENTER": 149.7844, "MEAN_ANOMALY": 210.5774, "EPHEMERIS_TYPE": 0, "CLASSIFICATION_TYPE": "U", "NORAD_CAT_ID": 34726, "ELEMENT_SET_NO": 999, "REV_AT_EPOCH": 88419, "BSTAR": 0.00067663866, "MEAN_MOTION_DOT": 3.22e-05, "MEAN_MOTION_DDOT": 0}, "tle": {"line1": "1 34726U 93036YU  25341.03937354  .00003220  00000+0  67664-3 0  9990", "line2": "2 34726  74.0290 357.1979 0042296 149.7844 210.5774 14.59449437884193"}}, "geometry": {"type": "Point", "coordinates": [153.3148522310473, 52.29741713611253]}}, {"type": "Feature", "properties": {"norad_id": 34728, "name": "COSMOS 2251 DEB", "group": "cosmos-2251-debris", "lat": 3.403014554226656, "lon": 79.69541450382088, "alt_km": 673.5666660208553, "timestamp": "2025-12-08T03:50:07.391098+00:00", "meta": {"OBJECT_NAME": "COSMOS 2251 DEB", "OBJECT_ID": "1993-036YW", "EPOCH": "2025-12-06T05:19:50.065536", "MEAN_MOTION": 14.70746647, "ECCENTRICITY": 0.00408299, "INCLINATION": 74.0179, "RA_OF_ASC_NODE": 264.4359, "ARG_OF_PERICENTER": 63.9353, "MEAN_ANOMALY": 296.6012, "EPHEMERIS_TYPE": 0, "CLASSIFICATION_TYPE": "U", "NORAD_CAT_ID": 34728, "ELEMENT_SET_NO": 999, "REV_AT_EPOCH": 88704, "BSTAR": 0.0014731687, "MEAN_MOTION_DOT": 9.083e-05, "MEAN_MOTION_DDOT": 0}, "tle": {"line1": "1 34728U 93036YW  25340.22210724  .00009083  00000+0  14732-2 0  9997", "line2": "2 34728  74.0179 264.4359 0040829  63.9353 296.6012 14.70746647887048"}}, "geometry": {"type": "Point", "coordinates": [79.69541450382088, 3.403014554226656]}}, {"type": "Feature", "properties": {"norad_id": 34729, "name": "COSMOS 2251 DEB", "group": "cosmos-2251-debris", "lat": -6.203694716912519, "lon": 5.7161602097401465, "alt_km": 630.5981927639823, "timestamp": "2025-12-08T03:50:07.391109+00:00", "meta": {"OBJECT_NAME": "COSMOS 2251 DEB", "OBJECT_ID": "1993-036YX", "EPOCH": "2025-12-07T02:06:03.685824", "MEAN_MOTION": 14.82556427, "ECCENTRICITY": 0.00119772, "INCLINATION": 74.0181, "RA_OF_ASC_NODE": 9.6234, "ARG_OF_PERICENTER": 132.1959, "MEAN_ANOMALY": 260.9747, "EPHEMERIS_TYPE": 0, "CLASSIFICATION_TYPE": "U", "NORAD_CAT_ID": 34729, "ELEMENT_SET_NO": 999, "REV_AT_EPOCH": 88374, "BSTAR": 0.0026992517, "MEAN_MOTION_DOT": 0.00021771, "MEAN_MOTION_DDOT": 0}, "tle": {"line1": "1 34729U 93036YX  25341.08754266  .00021771  00000+0  26993-2 0  9997", "line2": "2 34729  74.0181   9.6234 0011977 132.1959 260.9747 14.82556427883746"}}, "geometry": {"type": "Point", "coordinates": [5.7161602097401465, -6.203694716912519]}}, {"type": "Feature", "properties": {"norad_id": 34732, "name": "COSMOS 2251 DEB", "group": "cosmos-2251-debris", "lat": 72.49992142112518, "lon": 166.8858774568307, "alt_km": 755.597656932594, "timestamp": "2025-12-08T03:50:07.391118+00:00", "meta": {"OBJECT_NAME": "COSMOS 2251 DEB", "OBJECT_ID": "1993-036ZA", "EPOCH": "2025-12-06T15:02:21.684768", "MEAN_MOTION": 14.47289594, "ECCENTRICITY": 0.00404754, "INCLINATION": 74.0448, "RA_OF_ASC_NODE": 104.6087, "ARG_OF_PERICENTER": 256.7471, "MEAN_ANOMALY": 121.1411, "EPHEMERIS_TYPE": 0, "CLASSIFICATION_TYPE": "U", "NORAD_CAT_ID": 34732, "ELEMENT_SET_NO": 999, "REV_AT_EPOCH": 88055, "BSTAR": 0.00029482269, "MEAN_MOTION_DOT": 1.062e-05, "MEAN_MOTION_DDOT": 0}, "tle": {"line1": "1 34732U 93036ZA  25340.62663987  .00001062  00000+0  29482-3 0  9997", "line2": "2 34732  74.0448 104.6087 0040475 256.7471 121.1411 14.47289594880556"}}, "geometry": {"type": "Point", "coordinates": [166.8858774568307, 72.49992142112518]}}]}